[{"OBJECT_NAME":"LUOJIA-1 01","OBJECT_ID":"2018-048B","EPOCH":"2026-03-09T23:50:59.082432","MEAN_MOTION":14.86876409,"ECCENTRICITY":0.00105485,"INCLINATION":97.8151,"RA_OF_ASC_NODE":148.7861,"ARG_OF_PERICENTER":88.6664,"MEAN_ANOMALY":271.576,"EPHEMERIS_TYPE":0,"CLASSIFICATION_TYPE":"U","NORAD_CAT_ID":43485,"ELEMENT_SET_NO":999,"REV_AT_EPOCH":41947,"BSTAR":0.00015202216,"MEAN_MOTION_DOT":1.304e-5,"MEAN_MOTION_DDOT":0},{"OBJECT_NAME":"FENGYUN 1C DEB","OBJECT_ID":"1999-025BTX","EPOCH":"2026-03-08T17:49:10.867296","MEAN_MOTION":14.53615214,"ECCENTRICITY":0.01476461,"INCLINATION":99.0438,"RA_OF_ASC_NODE":251.3645,"ARG_OF_PERICENTER":281.2353,"MEAN_ANOMALY":77.2278,"EPHEMERIS_TYPE":0,"CLASSIFICATION_TYPE":"U","NORAD_CAT_ID":31435,"ELEMENT_SET_NO":999,"REV_AT_EPOCH":99622,"BSTAR":0.00026084624,"MEAN_MOTION_DOT":1.197e-5,"MEAN_MOTION_DDOT":0}]
